{
  "type": "FeatureCollection",
  "features": [
    {
      "type": "Feature",
      "properties": {
        "norad_id": 65731,
        "name": "1998-067XK",
        "group": "stations",
        "lat": 45.422826597161155,
        "lon": 131.08735631445666,
        "alt_km": 359.56788040824813,
        "timestamp": "2025-12-24T11:32:58.752639+00:00",
        "meta_object_name": "1998-067XK",
        "meta_object_id": "1998-067XK",
        "meta_epoch": "2025-12-23T06:12:26.032896",
        "meta_mean_motion": 15.67713225,
        "meta_eccentricity": 0.00049619,
        "meta_inclination": 51.6292,
        "meta_ra_of_asc_node": 83.7873,
        "meta_arg_of_pericenter": 312.0823,
        "meta_mean_anomaly": 47.9751,
        "meta_ephemeris_type": 0,
        "meta_classification_type": "U",
        "meta_norad_cat_id": 65731,
        "meta_element_set_no": 999,
        "meta_rev_at_epoch": 1479,
        "meta_bstar": 0.00091991075,
        "meta_mean_motion_dot": 0.00103596,
        "meta_mean_motion_ddot": 0,
        "tle_line1": "1 65731U 98067XK  25357.25863464  .00103596  00000+0  91991-3 0  9997",
        "tle_line2": "2 65731  51.6292  83.7873 0004961 312.0823  47.9751 15.67713225 14797"
      },
      "geometry": {
        "type": "Point",
        "coordinates": [
          131.08735631445666,
          45.422826597161155
        ]
      }
    },
    {
      "type": "Feature",
      "properties": {
        "norad_id": 65732,
        "name": "RSP-03",
        "group": "stations",
        "lat": 3.597291228059627,
        "lon": -106.28509763721749,
        "alt_km": 358.0087503736031,
        "timestamp": "2025-12-24T11:32:58.752652+00:00",
        "meta_object_name": "RSP-03",
        "meta_object_id": "1998-067XL",
        "meta_epoch": "2025-12-24T03:10:33.733632",
        "meta_mean_motion": 15.71515492,
        "meta_eccentricity": 0.0005957,
        "meta_inclination": 51.6261,
        "meta_ra_of_asc_node": 78.3569,
        "meta_arg_of_pericenter": 324.1964,
        "meta_mean_anomaly": 35.8634,
        "meta_ephemeris_type": 0,
        "meta_classification_type": "U",
        "meta_norad_cat_id": 65732,
        "meta_element_set_no": 999,
        "meta_rev_at_epoch": 1495,
        "meta_bstar": 0.0010972,
        "meta_mean_motion_dot": 0.00145625,
        "meta_mean_motion_ddot": 0,
        "tle_line1": "1 65732U 98067XL  25358.13233488  .00145625  00000+0  10972-2 0  9991",
        "tle_line2": "2 65732  51.6261  78.3569 0005957 324.1964  35.8634 15.71515492 14957"
      },
      "geometry": {
        "type": "Point",
        "coordinates": [
          -106.28509763721749,
          3.597291228059627
        ]
      }
    },
    {
      "type": "Feature",
      "properties": {
        "norad_id": 65733,
        "name": "GHS-01",
        "group": "stations",
        "lat": 31.4715411507494,
        "lon": 103.60319693341673,
        "alt_km": 322.4416488198676,
        "timestamp": "2025-12-24T11:32:58.752663+00:00",
        "meta_object_name": "GHS-01",
        "meta_object_id": "1998-067XM",
        "meta_epoch": "2025-12-23T11:05:04.304832",
        "meta_mean_motion": 15.79591896,
        "meta_eccentricity": 0.00088003,
        "meta_inclination": 51.6283,
        "meta_ra_of_asc_node": 79.8731,
        "meta_arg_of_pericenter": 346.0913,
        "meta_mean_anomaly": 13.9844,
        "meta_ephemeris_type": 0,
        "meta_classification_type": "U",
        "meta_norad_cat_id": 65733,
        "meta_element_set_no": 999,
        "meta_rev_at_epoch": 1487,
        "meta_bstar": 0.0014327729,
        "meta_mean_motion_dot": 0.00275731,
        "meta_mean_motion_ddot": 0,
        "tle_line1": "1 65733U 98067XM  25357.46185538  .00275731  00000+0  14328-2 0  9990",
        "tle_line2": "2 65733  51.6283  79.8731 0008800 346.0913  13.9844 15.79591896 14877"
      },
      "geometry": {
        "type": "Point",
        "coordinates": [
          103.60319693341673,
          31.4715411507494
        ]
      }
    },
    {
      "type": "Feature",
      "properties": {
        "norad_id": 65941,
        "name": "YOTSUBA-KULOVER",
        "group": "stations",
        "lat": -51.44687922126381,
        "lon": -15.276569843136086,
        "alt_km": 389.23159345556087,
        "timestamp": "2025-12-24T11:32:58.752674+00:00",
        "meta_object_name": "YOTSUBA-KULOVER",
        "meta_object_id": "1998-067XN",
        "meta_epoch": "2025-12-23T12:54:09.902304",
        "meta_mean_motion": 15.60866,
        "meta_eccentricity": 0.00021899,
        "meta_inclination": 51.6292,
        "meta_ra_of_asc_node": 85.6499,
        "meta_arg_of_pericenter": 347.5579,
        "meta_mean_anomaly": 12.536,
        "meta_ephemeris_type": 0,
        "meta_classification_type": "U",
        "meta_norad_cat_id": 65941,
        "meta_element_set_no": 999,
        "meta_rev_at_epoch": 1154,
        "meta_bstar": 0.00081748527,
        "meta_mean_motion_dot": 0.00069745,
        "meta_mean_motion_ddot": 0,
        "tle_line1": "1 65941U 98067XN  25357.53761461  .00069745  00000+0  81749-3 0  9992",
        "tle_line2": "2 65941  51.6292  85.6499 0002189 347.5579  12.5360 15.60866000 11543"
      },
      "geometry": {
        "type": "Point",
        "coordinates": [
          -15.276569843136086,
          -51.44687922126381
        ]
      }
    },
    {
      "type": "Feature",
      "properties": {
        "norad_id": 65942,
        "name": "BOTAN",
        "group": "stations",
        "lat": 28.934828243052767,
        "lon": 105.8478664809943,
        "alt_km": 367.8217970119058,
        "timestamp": "2025-12-24T11:32:58.752685+00:00",
        "meta_object_name": "BOTAN",
        "meta_object_id": "1998-067XP",
        "meta_epoch": "2025-12-23T23:07:45.899616",
        "meta_mean_motion": 15.65195853,
        "meta_eccentricity": 0.00032883,
        "meta_inclination": 51.6282,
        "meta_ra_of_asc_node": 82.4941,
        "meta_arg_of_pericenter": 330.2787,
        "meta_mean_anomaly": 29.802,
        "meta_ephemeris_type": 0,
        "meta_classification_type": "U",
        "meta_norad_cat_id": 65942,
        "meta_element_set_no": 999,
        "meta_rev_at_epoch": 1162,
        "meta_bstar": 0.0010936719,
        "meta_mean_motion_dot": 0.00111413,
        "meta_mean_motion_ddot": 0,
        "tle_line1": "1 65942U 98067XP  25357.96372569  .00111413  00000+0  10937-2 0  9997",
        "tle_line2": "2 65942  51.6282  82.4941 0003288 330.2787  29.8020 15.65195853 11620"
      },
      "geometry": {
        "type": "Point",
        "coordinates": [
          105.8478664809943,
          28.934828243052767
        ]
      }
    },
    {
      "type": "Feature",
      "properties": {
        "norad_id": 65943,
        "name": "E-KAGAKU-1",
        "group": "stations",
        "lat": -51.39964910420407,
        "lon": -16.154540330536996,
        "alt_km": 388.65031232268484,
        "timestamp": "2025-12-24T11:32:58.752696+00:00",
        "meta_object_name": "E-KAGAKU-1",
        "meta_object_id": "1998-067XQ",
        "meta_epoch": "2025-12-22T10:46:55.533504",
        "meta_mean_motion": 15.60710313,
        "meta_eccentricity": 0.00012968,
        "meta_inclination": 51.6319,
        "meta_ra_of_asc_node": 91.1385,
        "meta_arg_of_pericenter": 295.9007,
        "meta_mean_anomaly": 64.1852,
        "meta_ephemeris_type": 0,
        "meta_classification_type": "U",
        "meta_norad_cat_id": 65943,
        "meta_element_set_no": 999,
        "meta_rev_at_epoch": 1137,
        "meta_bstar": 0.00086344374,
        "meta_mean_motion_dot": 0.00073283,
        "meta_mean_motion_ddot": 0,
        "tle_line1": "1 65943U 98067XQ  25356.44925386  .00073283  00000+0  86344-3 0  9999",
        "tle_line2": "2 65943  51.6319  91.1385 0001296 295.9007  64.1852 15.60710313 11376"
      },
      "geometry": {
        "type": "Point",
        "coordinates": [
          -16.154540330536996,
          -51.39964910420407
        ]
      }
    },
    {
      "type": "Feature",
      "properties": {
        "norad_id": 66052,
        "name": "HRC MONOBLOCK CAMERA",
        "group": "stations",
        "lat": 7.094423126144476,
        "lon": 88.5864051804962,
        "alt_km": 403.0055768126176,
        "timestamp": "2025-12-24T11:32:58.752706+00:00",
        "meta_object_name": "HRC MONOBLOCK CAMERA",
        "meta_object_id": "1998-067XR",
        "meta_epoch": "2025-12-23T23:10:15.977280",
        "meta_mean_motion": 15.54901889,
        "meta_eccentricity": 0.0002152,
        "meta_inclination": 51.6306,
        "meta_ra_of_asc_node": 85.5033,
        "meta_arg_of_pericenter": 238.968,
        "meta_mean_anomaly": 121.11,
        "meta_ephemeris_type": 0,
        "meta_classification_type": "U",
        "meta_norad_cat_id": 66052,
        "meta_element_set_no": 999,
        "meta_rev_at_epoch": 1058,
        "meta_bstar": 0.0005004,
        "meta_mean_motion_dot": 0.00033738,
        "meta_mean_motion_ddot": 0,
        "tle_line1": "1 66052U 98067XR  25357.96546270  .00033738  00000+0  50040-3 0  9995",
        "tle_line2": "2 66052  51.6306  85.5033 0002152 238.9680 121.1100 15.54901889 10582"
      },
      "geometry": {
        "type": "Point",
        "coordinates": [
          88.5864051804962,
          7.094423126144476
        ]
      }
    }
  ]
}